[{"OBJECT_NAME":"GLOBALSTAR M069","OBJECT_ID":"2007-020C","EPOCH":"2026-04-26T23:19:35.810400","MEAN_MOTION":12.23469772,"ECCENTRICITY":0.00023702,"INCLINATION":52.0056,"RA_OF_ASC_NODE":37.0827,"ARG_OF_PERICENTER":45.9686,"MEAN_ANOMALY":35.5462,"EPHEMERIS_TYPE":0,"CLASSIFICATION_TYPE":"U","NORAD_CAT_ID":31573,"ELEMENT_SET_NO":999,"REV_AT_EPOCH":87253,"BSTAR":-0.0002423311,"MEAN_MOTION_DOT":-1.19e-6,"MEAN_MOTION_DDOT":0},{"OBJECT_NAME":"GLOBALSTAR M072","OBJECT_ID":"2007-020D","EPOCH":"2026-04-26T19:50:39.795072","MEAN_MOTION":11.91657334,"ECCENTRICITY":0.00014917,"INCLINATION":51.9927,"RA_OF_ASC_NODE":236.9812,"ARG_OF_PERICENTER":185.7627,"MEAN_ANOMALY":345.2294,"EPHEMERIS_TYPE":0,"CLASSIFICATION_TYPE":"U","NORAD_CAT_ID":31574,"ELEMENT_SET_NO":999,"REV_AT_EPOCH":86885,"BSTAR":-9.161925e-5,"MEAN_MOTION_DOT":-9.1e-7,"MEAN_MOTION_DDOT":0},{"OBJECT_NAME":"GLOBALSTAR M066","OBJECT_ID":"2007-048C","EPOCH":"2026-04-26T13:28:01.945632","MEAN_MOTION":12.30387851,"ECCENTRICITY":0.00042813,"INCLINATION":51.9583,"RA_OF_ASC_NODE":206.1171,"ARG_OF_PERICENTER":290.6622,"MEAN_ANOMALY":82.9381,"EPHEMERIS_TYPE":0,"CLASSIFICATION_TYPE":"U","NORAD_CAT_ID":32265,"ELEMENT_SET_NO":999,"REV_AT_EPOCH":85387,"BSTAR":-0.00011872491,"MEAN_MOTION_DOT":-1.08e-6,"MEAN_MOTION_DDOT":0},{"OBJECT_NAME":"GLOBALSTAR M079","OBJECT_ID":"2010-054A","EPOCH":"2026-04-26T18:09:01.367712","MEAN_MOTION":12.62265151,"ECCENTRICITY":5.71e-5,"INCLINATION":52.0041,"RA_OF_ASC_NODE":265.2334,"ARG_OF_PERICENTER":134.1146,"MEAN_ANOMALY":334.8593,"EPHEMERIS_TYPE":0,"CLASSIFICATION_TYPE":"U","NORAD_CAT_ID":37188,"ELEMENT_SET_NO":999,"REV_AT_EPOCH":71605,"BSTAR":6.0734737e-5,"MEAN_MOTION_DOT":-9.3e-7,"MEAN_MOTION_DDOT":0},{"OBJECT_NAME":"GLOBALSTAR M074","OBJECT_ID":"2010-054B","EPOCH":"2026-04-26T20:57:14.207040","MEAN_MOTION":12.6226758,"ECCENTRICITY":6.474e-5,"INCLINATION":52.0015,"RA_OF_ASC_NODE":264.1512,"ARG_OF_PERICENTER":104.6529,"MEAN_ANOMALY":55.1678,"EPHEMERIS_TYPE":0,"CLASSIFICATION_TYPE":"U","NORAD_CAT_ID":37189,"ELEMENT_SET_NO":999,"REV_AT_EPOCH":71667,"BSTAR":-6.245462e-6,"MEAN_MOTION_DOT":-1.05e-6,"MEAN_MOTION_DDOT":0},{"OBJECT_NAME":"GLOBALSTAR M076","OBJECT_ID":"2010-054C","EPOCH":"2026-04-26T17:00:39.809376","MEAN_MOTION":12.62272365,"ECCENTRICITY":4.23e-5,"INCLINATION":52.003,"RA_OF_ASC_NODE":264.8488,"ARG_OF_PERICENTER":103.46,"MEAN_ANOMALY":270.3,"EPHEMERIS_TYPE":0,"CLASSIFICATION_TYPE":"U","NORAD_CAT_ID":37190,"ELEMENT_SET_NO":999,"REV_AT_EPOCH":71637,"BSTAR":9.1778531e-5,"MEAN_MOTION_DOT":-8.7e-7,"MEAN_MOTION_DDOT":0},{"OBJECT_NAME":"GLOBALSTAR M077","OBJECT_ID":"2010-054D","EPOCH":"2026-04-26T20:24:40.182048","MEAN_MOTION":11.67547494,"ECCENTRICITY":0.00033104,"INCLINATION":51.9973,"RA_OF_ASC_NODE":309.5972,"ARG_OF_PERICENTER":82.9964,"MEAN_ANOMALY":18.8052,"EPHEMERIS_TYPE":0,"CLASSIFICATION_TYPE":"U","NORAD_CAT_ID":37191,"ELEMENT_SET_NO":999,"REV_AT_EPOCH":71514,"BSTAR":-2.9555084e-5,"MEAN_MOTION_DOT":-8.0e-7,"MEAN_MOTION_DDOT":0},{"OBJECT_NAME":"GLOBALSTAR M075","OBJECT_ID":"2010-054E","EPOCH":"2026-04-26T19:42:58.402656","MEAN_MOTION":12.62266122,"ECCENTRICITY":8.25e-5,"INCLINATION":51.9953,"RA_OF_ASC_NODE":306.5906,"ARG_OF_PERICENTER":101.1788,"MEAN_ANOMALY":4.3177,"EPHEMERIS_TYPE":0,"CLASSIFICATION_TYPE":"U","NORAD_CAT_ID":37192,"ELEMENT_SET_NO":999,"REV_AT_EPOCH":71545,"BSTAR":0.00011260462,"MEAN_MOTION_DOT":-8.4e-7,"MEAN_MOTION_DDOT":0},{"OBJECT_NAME":"GLOBALSTAR M073","OBJECT_ID":"2010-054F","EPOCH":"2026-04-26T18:08:06.586656","MEAN_MOTION":12.62266481,"ECCENTRICITY":3.661e-5,"INCLINATION":52.0058,"RA_OF_ASC_NODE":220.8506,"ARG_OF_PERICENTER":150.9676,"MEAN_ANOMALY":14.026,"EPHEMERIS_TYPE":0,"CLASSIFICATION_TYPE":"U","NORAD_CAT_ID":37193,"ELEMENT_SET_NO":999,"REV_AT_EPOCH":71743,"BSTAR":-3.6945466e-5,"MEAN_MOTION_DOT":-1.1e-6,"MEAN_MOTION_DDOT":0},{"OBJECT_NAME":"GLOBALSTAR M083","OBJECT_ID":"2011-033A","EPOCH":"2026-04-26T20:22:43.932576","MEAN_MOTION":12.62262827,"ECCENTRICITY":2.264e-5,"INCLINATION":51.9837,"RA_OF_ASC_NODE":168.8649,"ARG_OF_PERICENTER":190.0335,"MEAN_ANOMALY":341.6158,"EPHEMERIS_TYPE":0,"CLASSIFICATION_TYPE":"U","NORAD_CAT_ID":37739,"ELEMENT_SET_NO":999,"REV_AT_EPOCH":68646,"BSTAR":4.9404312e-5,"MEAN_MOTION_DOT":-9.5e-7,"MEAN_MOTION_DDOT":0},{"OBJECT_NAME":"GLOBALSTAR M088","OBJECT_ID":"2011-033B","EPOCH":"2026-04-26T20:50:55.368096","MEAN_MOTION":12.62263118,"ECCENTRICITY":4.606e-5,"INCLINATION":52.0212,"RA_OF_ASC_NODE":75.1065,"ARG_OF_PERICENTER":56.1576,"MEAN_ANOMALY":322.4421,"EPHEMERIS_TYPE":0,"CLASSIFICATION_TYPE":"U","NORAD_CAT_ID":37740,"ELEMENT_SET_NO":999,"REV_AT_EPOCH":68201,"BSTAR":9.825664e-6,"MEAN_MOTION_DOT":-1.02e-6,"MEAN_MOTION_DDOT":0},{"OBJECT_NAME":"GLOBALSTAR M091","OBJECT_ID":"2011-033C","EPOCH":"2026-04-26T23:23:11.248800","MEAN_MOTION":12.62262792,"ECCENTRICITY":5.453e-5,"INCLINATION":52.0018,"RA_OF_ASC_NODE":37.8254,"ARG_OF_PERICENTER":82.9775,"MEAN_ANOMALY":357.7897,"EPHEMERIS_TYPE":0,"CLASSIFICATION_TYPE":"U","NORAD_CAT_ID":37741,"ELEMENT_SET_NO":999,"REV_AT_EPOCH":68281,"BSTAR":1.543456e-6,"MEAN_MOTION_DOT":-1.03e-6,"MEAN_MOTION_DDOT":0},{"OBJECT_NAME":"GLOBALSTAR M085","OBJECT_ID":"2011-033D","EPOCH":"2026-04-26T23:11:33.315648","MEAN_MOTION":12.62262879,"ECCENTRICITY":7.031e-5,"INCLINATION":52.0146,"RA_OF_ASC_NODE":349.0996,"ARG_OF_PERICENTER":100.7502,"MEAN_ANOMALY":3.4811,"EPHEMERIS_TYPE":0,"CLASSIFICATION_TYPE":"U","NORAD_CAT_ID":37742,"ELEMENT_SET_NO":999,"REV_AT_EPOCH":68332,"BSTAR":0.0001198862,"MEAN_MOTION_DOT":-8.2e-7,"MEAN_MOTION_DDOT":0},{"OBJECT_NAME":"GLOBALSTAR M081","OBJECT_ID":"2011-033E","EPOCH":"2026-04-26T21:26:56.144832","MEAN_MOTION":12.62263685,"ECCENTRICITY":6.463e-5,"INCLINATION":51.9985,"RA_OF_ASC_NODE":351.8161,"ARG_OF_PERICENTER":81.0202,"MEAN_ANOMALY":292.1901,"EPHEMERIS_TYPE":0,"CLASSIFICATION_TYPE":"U","NORAD_CAT_ID":37743,"ELEMENT_SET_NO":999,"REV_AT_EPOCH":68346,"BSTAR":0.00012143973,"MEAN_MOTION_DOT":-8.2e-7,"MEAN_MOTION_DDOT":0},{"OBJECT_NAME":"GLOBALSTAR M089","OBJECT_ID":"2011-033F","EPOCH":"2026-04-26T18:35:42.885888","MEAN_MOTION":12.62265994,"ECCENTRICITY":8.267e-5,"INCLINATION":51.9937,"RA_OF_ASC_NODE":306.3476,"ARG_OF_PERICENTER":77.5027,"MEAN_ANOMALY":295.5604,"EPHEMERIS_TYPE":0,"CLASSIFICATION_TYPE":"U","NORAD_CAT_ID":37744,"ELEMENT_SET_NO":999,"REV_AT_EPOCH":68429,"BSTAR":0.00014961043,"MEAN_MOTION_DOT":-7.7e-7,"MEAN_MOTION_DDOT":0},{"OBJECT_NAME":"GLOBALSTAR M084","OBJECT_ID":"2011-080A","EPOCH":"2026-04-26T11:18:37.938816","MEAN_MOTION":12.62266632,"ECCENTRICITY":2.007e-5,"INCLINATION":51.9993,"RA_OF_ASC_NODE":174.7249,"ARG_OF_PERICENTER":65.6178,"MEAN_ANOMALY":307.4047,"EPHEMERIS_TYPE":0,"CLASSIFICATION_TYPE":"U","NORAD_CAT_ID":38040,"ELEMENT_SET_NO":999,"REV_AT_EPOCH":66223,"BSTAR":2.3706438e-5,"MEAN_MOTION_DOT":-1.0e-6,"MEAN_MOTION_DDOT":0}]
