GLOBALSTAR M069         
1 31573U 07020C   26116.97194225 -.00000119  00000+0 -24233-3 0  9992
2 31573  52.0056  37.0827 0002370  45.9686  35.5462 12.23469772872539
GLOBALSTAR M072         
1 31574U 07020D   26116.82684948 -.00000091  00000+0 -91619-4 0  9995
2 31574  51.9927 236.9812 0001491 185.7627 345.2294 11.91657334868851
GLOBALSTAR M066         
1 32265U 07048C   26116.56113363 -.00000108  00000+0 -11872-3 0  9993
2 32265  51.9583 206.1171 0004281 290.6622  82.9381 12.30387851853871
GLOBALSTAR M079         
1 37188U 10054A   26116.75626583 -.00000093  00000+0  60735-4 0  9992
2 37188  52.0041 265.2334 0000571 134.1146 334.8593 12.62265151716054
GLOBALSTAR M074         
1 37189U 10054B   26116.87308110 -.00000105  00000+0 -62455-5 0  9996
2 37189  52.0015 264.1512 0000647 104.6529  55.1678 12.62267580716676
GLOBALSTAR M076         
1 37190U 10054C   26116.70879409 -.00000087  00000+0  91779-4 0  9992
2 37190  52.0030 264.8488 0000423 103.4600 270.3000 12.62272365716377
GLOBALSTAR M077         
1 37191U 10054D   26116.85046507 -.00000080  00000+0 -29555-4 0  9991
2 37191  51.9973 309.5972 0003310  82.9964  18.8052 11.67547494715147
GLOBALSTAR M075         
1 37192U 10054E   26116.82150929 -.00000084  00000+0  11260-3 0  9999
2 37192  51.9953 306.5906 0000825 101.1788   4.3177 12.62266122715450
GLOBALSTAR M073         
1 37193U 10054F   26116.75563179 -.00000110  00000+0 -36945-4 0  9996
2 37193  52.0058 220.8506 0000366 150.9676  14.0260 12.62266481717430
GLOBALSTAR M083         
1 37739U 11033A   26116.84911959 -.00000095  00000+0  49404-4 0  9998
2 37739  51.9837 168.8649 0000226 190.0335 341.6158 12.62262827686463
GLOBALSTAR M088         
1 37740U 11033B   26116.86869639 -.00000102  00000+0  98257-5 0  9999
2 37740  52.0212  75.1065 0000460  56.1576 322.4421 12.62263118682016
GLOBALSTAR M091         
1 37741U 11033C   26116.97443575 -.00000103  00000+0  15435-5 0  9997
2 37741  52.0018  37.8254 0000545  82.9775 357.7897 12.62262792682811
GLOBALSTAR M085         
1 37742U 11033D   26116.96635782 -.00000082  00000+0  11989-3 0  9994
2 37742  52.0146 349.0996 0000703 100.7502   3.4811 12.62262879683322
GLOBALSTAR M081         
1 37743U 11033E   26116.89370538 -.00000082  00000+0  12144-3 0  9996
2 37743  51.9985 351.8161 0000646  81.0202 292.1901 12.62263685683469
GLOBALSTAR M089         
1 37744U 11033F   26116.77480192 -.00000077  00000+0  14961-3 0  9995
2 37744  51.9937 306.3476 0000826  77.5027 295.5604 12.62265994684290
GLOBALSTAR M084         
1 38040U 11080A   26116.47127244 -.00000100  00000+0  23706-4 0  9995
2 38040  51.9993 174.7249 0000200  65.6178 307.4047 12.62266632662232
